PROGRESS-MS 32          
1 65586U 25204A   25323.31903918  .00014458  00000+0  26247-3 0  9997
2 65586  51.6333 258.3957 0004144  86.8503 273.2960 15.49817487   277
CYGNUS NG-23            
1 65616U 25208A   25323.31903918  .00014458  00000+0  26247-3 0  9995
2 65616  51.6333 258.3957 0004144  86.8503 273.2960 15.49817487   226
DRAGONFLY               
1 65729U 98067XH  25323.92037313  .00112129  00000+0  11266-2 0  9995
2 65729  51.6287 251.9124 0005712 153.5408 206.5879 15.64594603  9587
1998-067XJ              
1 65730U 98067XJ  25322.85827403  .00558185  00000+0  23956-2 0  9990
2 65730  51.6228 254.5433 0011889 144.3757 215.8041 15.82966684  9455
1998-067XK              
1 65731U 98067XK  25323.84824894  .00072887  00000+0  84528-3 0  9995
2 65731  51.6312 252.9366 0005928 127.9460 232.2070 15.61108312  9562
RSP-03                  
1 65732U 98067XL  25323.11780404  .00095057  00000+0  10349-2 0  9997
2 65732  51.6296 256.3049 0006691 126.9731 233.1877 15.62620166  9469
GHS-01                  
1 65733U 98067XM  25323.83682532  .00130471  00000+0  12405-2 0  9995
2 65733  51.6299 252.1081 0006213 151.1328 209.0013 15.65904686  9587
YOTSUBA-KULOVER         
1 65941U 98067XN  25323.93655505  .00055780  00000+0  78778-3 0  9992
2 65941  51.6313 254.2713 0002470  97.9084 262.2188 15.56006448  6307
BOTAN                   
1 65942U 98067XP  25323.78685352  .00083332  00000+0  10928-2 0  9995
2 65942  51.6307 254.7727 0004747 105.8470 254.3046 15.57821335  6281
E-KAGAKU-1              
1 65943U 98067XQ  25323.10123457  .00057677  00000+0  81781-3 0  9994
2 65943  51.6322 258.4445 0004057  83.1907 276.9545 15.55879979  6171
HRC MONOBLOCK CAMERA    
1 66052U 98067XR  25323.80873577  .00033960  00000+0  55542-3 0  9993
2 66052  51.6323 255.6643 0004749  92.1079 268.0454 15.52187355  5279
HTV-X1                  
1 66174U 25241A   25323.31903918  .00014458  00000+0  26247-3 0  9992
2 66174  51.6333 258.3957 0004144  86.8503 273.2960 15.49817487  1452
